{
    "links": {
        "self": "http://www.neowsapp.com/rest/v1/neo/3789409?api_key=iIulBulltgU6a56xZRHN4H3l9WmuAYTsLGpBGhQ2"
    },
    "id": "3789409",
    "neo_reference_id": "3789409",
    "name": "(2017 WB)",
    "designation": "2017 WB",
    "nasa_jpl_url": "http://ssd.jpl.nasa.gov/sbdb.cgi?sstr=3789409",
    "absolute_magnitude_h": 25.3,
    "estimated_diameter": {
        "kilometers": {
            "estimated_diameter_min": 0.0231502122,
            "estimated_diameter_max": 0.0517654482
        },
        "meters": {
            "estimated_diameter_min": 23.150212221,
            "estimated_diameter_max": 51.7654482198
        },
        "miles": {
            "estimated_diameter_min": 0.0143848705,
            "estimated_diameter_max": 0.0321655483
        },
        "feet": {
            "estimated_diameter_min": 75.9521422633,
            "estimated_diameter_max": 169.8341531374
        }
    },
    "is_potentially_hazardous_asteroid": false,
    "close_approach_data": [
        {
            "close_approach_date": "1925-08-06",
            "close_approach_date_full": "1925-Aug-06 11:14",
            "epoch_date_close_approach": -1401281160000,
            "relative_velocity": {
                "kilometers_per_second": "20.8198594822",
                "kilometers_per_hour": "74951.494136037",
                "miles_per_hour": "46571.9436758059"
            },
            "miss_distance": {
                "astronomical": "0.4423972658",
                "lunar": "172.0925363962",
                "kilometers": "66181688.657503846",
                "miles": "41123394.4146352348"
            },
            "orbiting_body": "Earth"
        },
        {
            "close_approach_date": "1984-08-22",
            "close_approach_date_full": "1984-Aug-22 10:21",
            "epoch_date_close_approach": 462018060000,
            "relative_velocity": {
                "kilometers_per_second": "13.6322131744",
                "kilometers_per_hour": "49075.9674279336",
                "miles_per_hour": "30493.8976498735"
            },
            "miss_distance": {
                "astronomical": "0.2099568087",
                "lunar": "81.6731985843",
                "kilometers": "31409091.373517469",
                "miles": "19516704.3778963122"
            },
            "orbiting_body": "Earth"
        },
        {
            "close_approach_date": "2010-08-14",
            "close_approach_date_full": "2010-Aug-14 18:10",
            "epoch_date_close_approach": 1281809400000,
            "relative_velocity": {
                "kilometers_per_second": "17.2027124303",
                "kilometers_per_hour": "61929.7647491887",
                "miles_per_hour": "38480.7474354056"
            },
            "miss_distance": {
                "astronomical": "0.3214643189",
                "lunar": "125.0496200521",
                "kilometers": "48090377.388440743",
                "miles": "29881974.8635905334"
            },
            "orbiting_body": "Earth"
        },
        {
            "close_approach_date": "2017-11-15",
            "close_approach_date_full": "2017-Nov-15 19:40",
            "epoch_date_close_approach": 1510774800000,
            "relative_velocity": {
                "kilometers_per_second": "8.8267951103",
                "kilometers_per_hour": "31776.4623970984",
                "miles_per_hour": "19744.6579822415"
            },
            "miss_distance": {
                "astronomical": "0.018910948",
                "lunar": "7.356358772",
                "kilometers": "2829037.54048076",
                "miles": "1757882.413564088"
            },
            "orbiting_body": "Earth"
        }
    ],
    "orbital_data": {
        "orbit_id": "12",
        "orbit_determination_date": "2018-01-01 06:21:56",
        "first_observation_date": "2017-11-16",
        "last_observation_date": "2017-12-13",
        "data_arc_in_days": 27,
        "observations_used": 104,
        "orbit_uncertainty": "7",
        "minimum_orbit_intersection": ".000464864",
        "jupiter_tisserand_invariant": "3.957",
        "epoch_osculation": "2459000.5",
        "eccentricity": ".4604604347108534",
        "semi_major_axis": "1.780454732936456",
        "inclination": "5.31098797663035",
        "ascending_node_longitude": "228.8765149652289",
        "orbital_period": "867.7504180194845",
        "perihelion_distance": ".9606257726255391",
        "perihelion_argument": "154.8125901413274",
        "aphelion_distance": "2.600283693247373",
        "perihelion_time": "2458917.664665432767",
        "mean_anomaly": "34.36555007632868",
        "mean_motion": ".4148658329910669",
        "equinox": "J2000",
        "orbit_class": {
            "orbit_class_type": "APO",
            "orbit_class_description": "Near-Earth asteroid orbits which cross the Earth’s orbit similar to that of 1862 Apollo",
            "orbit_class_range": "a (semi-major axis) > 1.0 AU; q (perihelion) < 1.017 AU"
        }
    },
    "is_sentry_object": false
}